42939,COSMOS 2522 [GLONASS-M],2017,675.73,1415.0,+,64.08,Active,1,MEO,Russia,Russia/USSR,Commercial/Military,Navigation (Global or Regional Positioning),Soyuz,1 42939U 17055A   25062.45611830  .00000059  00000+0  00000+0 0  9990,2 42939  64.0798 207.9125 0006592 228.5611 131.3508  2.13101717 57945,2.13101717,0.0006592,MEO
43508,COSMOS 2527 [GLONASS-M],2018,675.73,1415.0,+,65.32,Active,1,MEO,Russia,Russia/USSR,Commercial/Military,Navigation (Global or Regional Positioning),Soyuz,1 43508U 18053A   25062.41599987  .00000028  00000+0  00000+0 0  9992,2 43508  65.3224  89.6397 0009809 243.4959 116.4630  2.13102196 52247,2.13102196,0.0009809,MEO
43687,COSMOS 2529 [GLONASS-M],2018,675.73,1415.0,+,64.3,Active,1,MEO,Russia,Russia/USSR,Commercial/Military,Navigation (Global or Regional Positioning),Soyuz,1 43687U 18086A   25062.51425482  .00000060  00000+0  00000+0 0  9991,2 43687  64.2955 208.4931 0007516 257.2927 102.5918  2.13101913 49258,2.13101913,0.0007516,MEO
44299,COSMOS 2534 [GLONASS-M],2019,675.73,1415.0,+,64.37,Active,1,MEO,Russia,Russia/USSR,Commercial/Military,Navigation (Global or Regional Positioning),Soyuz,1 44299U 19030A   25061.44660219  .00000055  00000+0  00000+0 0  9995,2 44299  64.3690 208.5068 0009475 285.2496 109.8333  2.13101999 44873,2.13101999,0.0009475,MEO
44850,COSMOS 2544 [GLONASS-M],2019,675.73,1415.0,+,65.31,Active,1,MEO,Russia,Russia/USSR,Commercial/Military,Navigation (Global or Regional Positioning),Soyuz,1 44850U 19088A   25061.89103322  .00000033  00000+0  00000+0 0  9993,2 44850  65.3093  89.4895 0015605 259.7040 100.1823  2.13101988 40671,2.13101988,0.0015605,MEO
45358,COSMOS 2545 [GLONASS-M],2020,675.73,1415.0,+,64.62,Active,1,MEO,Russia,Russia/USSR,Commercial/Military,Navigation (Global or Regional Positioning),Soyuz,1 45358U 20018A   25062.08770261 -.00000054  00000+0  00000+0 0  9990,2 45358  64.6241 328.9324 0008584 255.8069 104.1474  2.13102360 38629,2.1310236,0.0008584,MEO
46805,COSMOS 2547 [GLONASS-K],2020,675.73,1415.0,+,64.6,Active,1,MEO,Russia,Russia/USSR,Commercial/Military,Navigation (Global or Regional Positioning),Soyuz,1 46805U 20075A   25061.80421984  .00000057  00000+0  00000+0 0  9997,2 46805  64.5987 208.2134 0006322 232.0084 127.9009  2.13102901 33863,2.13102901,0.0006322,MEO
52984,COSMOS 2557 [GLONASS-K],2022,675.73,974.0,+,64.56,Active,1,MEO,Russia,Russia/USSR,Commercial/Military,Navigation (Global or Regional Positioning),Soyuz,1 52984U 22075A   25061.03268812 -.00000050  00000+0  00000+0 0  9992,2 52984  64.5585 331.0755 0012342 285.4715  74.4403  2.13101687 20655,2.13101687,0.0012342,MEO
54031,COSMOS 2559 [GLONASS-K],2022,675.74,1415.0,+,64.53,Active,1,MEO,Russia,Russia/USSR,Commercial/Military,Navigation (Global or Regional Positioning),Soyuz,1 54031U 22130A   25062.38414818 -.00000059  00000+0  00000+0 0  9996,2 54031  64.5299 331.1369 0005681 232.8836 127.1109  2.13101101 18659,2.13101101,0.0005681,MEO
54377,COSMOS 2564 [GLONASS-M],2022,675.73,-1.0,+,64.74,Active,0,MEO,Russia,Russia/USSR,Unknown,Unknown,Unknown,1 54377U 22161A   25062.10425048  .00000059  00000+0  00000+0 0  9999,2 54377  64.7402 208.3546 0008578 208.4057 151.5150  2.13101901 17591,2.13101901,0.0008578,MEO
57517,COSMOS 2569 [GLONASS-K2],2023,675.73,-1.0,+,65.04,Active,0,MEO,Russia,Russia/USSR,Unknown,Unknown,Unknown,1 57517U 23114A   25062.11961855  .00000029  00000+0  00000+0 0  9996,2 57517  65.0398  88.5378 0012762 292.2204  67.7040  2.13104021 12221,2.13104021,0.0012762,MEO
63130,COSMOS 2584 [GLONASS-K2],2025,676.45,-1.0,+,64.79,Active,0,MEO,Russia,Russia/USSR,Unknown,Unknown,Unknown,1 63130U 25042A   25062.74522602  .00000024  00000+0  00000+0 0  9993,2 63130  64.8088  88.8283 0002832 295.2490 261.5125  2.12879902    26,2.12879902,0.0002832,MEO
