[
    {
        "OBJECT_NAME": "COSMOS 2522 [GLONASS-M]",
        "OBJECT_ID": "2017-055A",
        "EPOCH": "2025-03-03T10:56:48.621120",
        "MEAN_MOTION": 2.13101717,
        "ECCENTRICITY": 0.0006592,
        "INCLINATION": 64.0798,
        "RA_OF_ASC_NODE": 207.9125,
        "ARG_OF_PERICENTER": 228.5611,
        "MEAN_ANOMALY": 131.3508,
        "EPHEMERIS_TYPE": 0,
        "CLASSIFICATION_TYPE": "U",
        "NORAD_CAT_ID": 42939,
        "ELEMENT_SET_NO": 999,
        "REV_AT_EPOCH": 5794,
        "BSTAR": 0,
        "MEAN_MOTION_DOT": 5.9e-07,
        "MEAN_MOTION_DDOT": 0
    },
    {
        "OBJECT_NAME": "COSMOS 2527 [GLONASS-M]",
        "OBJECT_ID": "2018-053A",
        "EPOCH": "2025-03-03T09:59:02.388768",
        "MEAN_MOTION": 2.13102196,
        "ECCENTRICITY": 0.0009809,
        "INCLINATION": 65.3224,
        "RA_OF_ASC_NODE": 89.6397,
        "ARG_OF_PERICENTER": 243.4959,
        "MEAN_ANOMALY": 116.463,
        "EPHEMERIS_TYPE": 0,
        "CLASSIFICATION_TYPE": "U",
        "NORAD_CAT_ID": 43508,
        "ELEMENT_SET_NO": 999,
        "REV_AT_EPOCH": 5224,
        "BSTAR": 0,
        "MEAN_MOTION_DOT": 2.8e-07,
        "MEAN_MOTION_DDOT": 0
    },
    {
        "OBJECT_NAME": "COSMOS 2529 [GLONASS-M]",
        "OBJECT_ID": "2018-086A",
        "EPOCH": "2025-03-03T12:20:31.616448",
        "MEAN_MOTION": 2.13101913,
        "ECCENTRICITY": 0.0007516,
        "INCLINATION": 64.2955,
        "RA_OF_ASC_NODE": 208.4931,
        "ARG_OF_PERICENTER": 257.2927,
        "MEAN_ANOMALY": 102.5918,
        "EPHEMERIS_TYPE": 0,
        "CLASSIFICATION_TYPE": "U",
        "NORAD_CAT_ID": 43687,
        "ELEMENT_SET_NO": 999,
        "REV_AT_EPOCH": 4925,
        "BSTAR": 0,
        "MEAN_MOTION_DOT": 6e-07,
        "MEAN_MOTION_DDOT": 0
    },
    {
        "OBJECT_NAME": "COSMOS 2534 [GLONASS-M]",
        "OBJECT_ID": "2019-030A",
        "EPOCH": "2025-03-02T10:43:06.429216",
        "MEAN_MOTION": 2.13101999,
        "ECCENTRICITY": 0.0009475,
        "INCLINATION": 64.369,
        "RA_OF_ASC_NODE": 208.5068,
        "ARG_OF_PERICENTER": 285.2496,
        "MEAN_ANOMALY": 109.8333,
        "EPHEMERIS_TYPE": 0,
        "CLASSIFICATION_TYPE": "U",
        "NORAD_CAT_ID": 44299,
        "ELEMENT_SET_NO": 999,
        "REV_AT_EPOCH": 4487,
        "BSTAR": 0,
        "MEAN_MOTION_DOT": 5.5e-07,
        "MEAN_MOTION_DDOT": 0
    },
    {
        "OBJECT_NAME": "COSMOS 2544 [GLONASS-M]",
        "OBJECT_ID": "2019-088A",
        "EPOCH": "2025-03-02T21:23:05.270208",
        "MEAN_MOTION": 2.13101988,
        "ECCENTRICITY": 0.0015605,
        "INCLINATION": 65.3093,
        "RA_OF_ASC_NODE": 89.4895,
        "ARG_OF_PERICENTER": 259.704,
        "MEAN_ANOMALY": 100.1823,
        "EPHEMERIS_TYPE": 0,
        "CLASSIFICATION_TYPE": "U",
        "NORAD_CAT_ID": 44850,
        "ELEMENT_SET_NO": 999,
        "REV_AT_EPOCH": 4067,
        "BSTAR": 0,
        "MEAN_MOTION_DOT": 3.3e-07,
        "MEAN_MOTION_DDOT": 0
    },
    {
        "OBJECT_NAME": "COSMOS 2545 [GLONASS-M]",
        "OBJECT_ID": "2020-018A",
        "EPOCH": "2025-03-03T02:06:17.505504",
        "MEAN_MOTION": 2.1310236,
        "ECCENTRICITY": 0.0008584,
        "INCLINATION": 64.6241,
        "RA_OF_ASC_NODE": 328.9324,
        "ARG_OF_PERICENTER": 255.8069,
        "MEAN_ANOMALY": 104.1474,
        "EPHEMERIS_TYPE": 0,
        "CLASSIFICATION_TYPE": "U",
        "NORAD_CAT_ID": 45358,
        "ELEMENT_SET_NO": 999,
        "REV_AT_EPOCH": 3862,
        "BSTAR": 0,
        "MEAN_MOTION_DOT": -5.4e-07,
        "MEAN_MOTION_DDOT": 0
    },
    {
        "OBJECT_NAME": "COSMOS 2547 [GLONASS-K]",
        "OBJECT_ID": "2020-075A",
        "EPOCH": "2025-03-02T19:18:04.594176",
        "MEAN_MOTION": 2.13102901,
        "ECCENTRICITY": 0.0006322,
        "INCLINATION": 64.5987,
        "RA_OF_ASC_NODE": 208.2134,
        "ARG_OF_PERICENTER": 232.0084,
        "MEAN_ANOMALY": 127.9009,
        "EPHEMERIS_TYPE": 0,
        "CLASSIFICATION_TYPE": "U",
        "NORAD_CAT_ID": 46805,
        "ELEMENT_SET_NO": 999,
        "REV_AT_EPOCH": 3386,
        "BSTAR": 0,
        "MEAN_MOTION_DOT": 5.7e-07,
        "MEAN_MOTION_DDOT": 0
    },
    {
        "OBJECT_NAME": "COSMOS 2557 [GLONASS-K]",
        "OBJECT_ID": "2022-075A",
        "EPOCH": "2025-03-02T00:47:04.253568",
        "MEAN_MOTION": 2.13101687,
        "ECCENTRICITY": 0.0012342,
        "INCLINATION": 64.5585,
        "RA_OF_ASC_NODE": 331.0755,
        "ARG_OF_PERICENTER": 285.4715,
        "MEAN_ANOMALY": 74.4403,
        "EPHEMERIS_TYPE": 0,
        "CLASSIFICATION_TYPE": "U",
        "NORAD_CAT_ID": 52984,
        "ELEMENT_SET_NO": 999,
        "REV_AT_EPOCH": 2065,
        "BSTAR": 0,
        "MEAN_MOTION_DOT": -5e-07,
        "MEAN_MOTION_DDOT": 0
    },
    {
        "OBJECT_NAME": "COSMOS 2559 [GLONASS-K]",
        "OBJECT_ID": "2022-130A",
        "EPOCH": "2025-03-03T09:13:10.402752",
        "MEAN_MOTION": 2.13101101,
        "ECCENTRICITY": 0.0005681,
        "INCLINATION": 64.5299,
        "RA_OF_ASC_NODE": 331.1369,
        "ARG_OF_PERICENTER": 232.8836,
        "MEAN_ANOMALY": 127.1109,
        "EPHEMERIS_TYPE": 0,
        "CLASSIFICATION_TYPE": "U",
        "NORAD_CAT_ID": 54031,
        "ELEMENT_SET_NO": 999,
        "REV_AT_EPOCH": 1865,
        "BSTAR": 0,
        "MEAN_MOTION_DOT": -5.9e-07,
        "MEAN_MOTION_DDOT": 0
    },
    {
        "OBJECT_NAME": "COSMOS 2564 [GLONASS-M]",
        "OBJECT_ID": "2022-161A",
        "EPOCH": "2025-03-03T02:30:07.241472",
        "MEAN_MOTION": 2.13101901,
        "ECCENTRICITY": 0.0008578,
        "INCLINATION": 64.7402,
        "RA_OF_ASC_NODE": 208.3546,
        "ARG_OF_PERICENTER": 208.4057,
        "MEAN_ANOMALY": 151.515,
        "EPHEMERIS_TYPE": 0,
        "CLASSIFICATION_TYPE": "U",
        "NORAD_CAT_ID": 54377,
        "ELEMENT_SET_NO": 999,
        "REV_AT_EPOCH": 1759,
        "BSTAR": 0,
        "MEAN_MOTION_DOT": 5.9e-07,
        "MEAN_MOTION_DDOT": 0
    },
    {
        "OBJECT_NAME": "COSMOS 2569 [GLONASS-K2]",
        "OBJECT_ID": "2023-114A",
        "EPOCH": "2025-03-03T02:52:15.042720",
        "MEAN_MOTION": 2.13104021,
        "ECCENTRICITY": 0.0012762,
        "INCLINATION": 65.0398,
        "RA_OF_ASC_NODE": 88.5378,
        "ARG_OF_PERICENTER": 292.2204,
        "MEAN_ANOMALY": 67.704,
        "EPHEMERIS_TYPE": 0,
        "CLASSIFICATION_TYPE": "U",
        "NORAD_CAT_ID": 57517,
        "ELEMENT_SET_NO": 999,
        "REV_AT_EPOCH": 1222,
        "BSTAR": 0,
        "MEAN_MOTION_DOT": 2.9e-07,
        "MEAN_MOTION_DDOT": 0
    },
    {
        "OBJECT_NAME": "COSMOS 2584 [GLONASS-K2]",
        "OBJECT_ID": "2025-042A",
        "EPOCH": "2025-03-03T17:53:07.528128",
        "MEAN_MOTION": 2.12879902,
        "ECCENTRICITY": 0.0002832,
        "INCLINATION": 64.8088,
        "RA_OF_ASC_NODE": 88.8283,
        "ARG_OF_PERICENTER": 295.249,
        "MEAN_ANOMALY": 261.5125,
        "EPHEMERIS_TYPE": 0,
        "CLASSIFICATION_TYPE": "U",
        "NORAD_CAT_ID": 63130,
        "ELEMENT_SET_NO": 999,
        "REV_AT_EPOCH": 2,
        "BSTAR": 0,
        "MEAN_MOTION_DOT": 2.4e-07,
        "MEAN_MOTION_DDOT": 0
    }
]